DELTA 2 R/B(1)          
1 20453U 90008B   26035.28006795  .00068829  00000+0  92277-3 0  9996
2 20453  35.6065  33.3342 0096802 307.5886  51.6090 15.51337066920932
COSMOS 2058             
1 20465U 90010A   26035.27524111  .00004266  00000+0  25332-3 0  9991
2 20465  82.4632  80.3459 0012112  90.1188 270.1430 15.11009395937197
SL-14 R/B               
1 20466U 90010B   26035.23308891  .00000579  00000+0  67239-4 0  9999
2 20466  82.5035 298.8150 0021131  52.8541 307.4600 14.83538200923524
SL-14 R/B               
1 20511U 90018B   26035.08357787  .00000435  00000+0  51647-4 0  9996
2 20511  82.5187 254.5083 0015829 197.9382 162.1276 14.82109613917606
HST                     
1 20580U 90037B   26035.00659074  .00008870  00000+0  29858-3 0  9998
2 20580  28.4666 269.6866 0002007  97.1098 262.9725 15.28939114768158
SL-16 R/B               
1 20625U 90046B   26035.25995271 -.00000041  00000+0  32136-5 0  9995
2 20625  70.9996   8.1190 0014502 346.0280  14.0440 14.15004939843667
COSMOS 2084             
1 20663U 90055A   26035.31297876  .00003005  00000+0  22124-3 0  9996
2 20663  62.7896  89.3963 0022433 183.1294 176.9670 15.05431651931298
SL-6 R/B(2)             
1 20666U 90055D   26035.25052536  .00003369  00000+0  25998-3 0  9999
2 20666  62.7849   7.5485 0019811 337.2024  22.8193 15.03407942933160
SL-8 R/B                
1 20775U 90078B   26035.16538930  .00016660  00000+0  49277-3 0  9996
2 20775  82.9030 281.4322 0367431 126.3077 237.2671 14.87938950804315
SL-8 R/B                
1 21088U 91006B   26035.23415469  .00000002  00000+0 -13370-4 0  9995
2 21088  82.9427 194.9200 0023456 127.3511  46.3000 13.77491844759460
OKEAN-3                 
1 21397U 91039A   26035.29526883  .00003799  00000+0  26847-3 0  9990
2 21397  82.5181   9.1850 0016325  85.6419 274.6672 15.04534613860013
COSMOS 2151             
1 21422U 91042A   26035.26324491  .00001974  00000+0  15656-3 0  9990
2 21422  82.4970 115.9186 0012988 166.0660 194.0925 14.99971855858185
