CCSDS_OMM_VERS = 2.0
CREATION_DATE  = 
ORIGINATOR     = 

OBJECT_NAME    = DELTA 2 R/B(1)
OBJECT_ID      = 1990-008B
CENTER_NAME    = EARTH
REF_FRAME      = TEME
TIME_SYSTEM    = UTC
MEAN_ELEMENT_THEORY = SGP/SGP4

EPOCH          = 2026-02-04T06:43:17.870880
MEAN_MOTION    = 15.51337066
ECCENTRICITY   = .00968024
INCLINATION    = 35.6065
RA_OF_ASC_NODE = 33.3342
ARG_OF_PERICENTER = 307.5886
MEAN_ANOMALY   = 51.6090

EPHEMERIS_TYPE = 0
CLASSIFICATION_TYPE = U
NORAD_CAT_ID   = 20453
ELEMENT_SET_NO = 999
REV_AT_EPOCH   = 92093
BSTAR          = .92277385E-3
MEAN_MOTION_DOT = .68829E-3
MEAN_MOTION_DDOT = 0

CCSDS_OMM_VERS = 2.0
CREATION_DATE  = 
ORIGINATOR     = 

OBJECT_NAME    = COSMOS 2058
OBJECT_ID      = 1990-010A
CENTER_NAME    = EARTH
REF_FRAME      = TEME
TIME_SYSTEM    = UTC
MEAN_ELEMENT_THEORY = SGP/SGP4

EPOCH          = 2026-02-04T06:36:20.831904
MEAN_MOTION    = 15.11009395
ECCENTRICITY   = .00121127
INCLINATION    = 82.4632
RA_OF_ASC_NODE = 80.3459
ARG_OF_PERICENTER = 90.1188
MEAN_ANOMALY   = 270.1430

EPHEMERIS_TYPE = 0
CLASSIFICATION_TYPE = U
NORAD_CAT_ID   = 20465
ELEMENT_SET_NO = 999
REV_AT_EPOCH   = 93719
BSTAR          = .25332172E-3
MEAN_MOTION_DOT = .4266E-4
MEAN_MOTION_DDOT = 0

CCSDS_OMM_VERS = 2.0
CREATION_DATE  = 
ORIGINATOR     = 

OBJECT_NAME    = SL-14 R/B
OBJECT_ID      = 1990-010B
CENTER_NAME    = EARTH
REF_FRAME      = TEME
TIME_SYSTEM    = UTC
MEAN_ELEMENT_THEORY = SGP/SGP4

EPOCH          = 2026-02-04T05:35:38.881824
MEAN_MOTION    = 14.83538200
ECCENTRICITY   = .00211313
INCLINATION    = 82.5035
RA_OF_ASC_NODE = 298.8150
ARG_OF_PERICENTER = 52.8541
MEAN_ANOMALY   = 307.4600

EPHEMERIS_TYPE = 0
CLASSIFICATION_TYPE = U
NORAD_CAT_ID   = 20466
ELEMENT_SET_NO = 999
REV_AT_EPOCH   = 92352
BSTAR          = .67239168E-4
MEAN_MOTION_DOT = .579E-5
MEAN_MOTION_DDOT = 0

CCSDS_OMM_VERS = 2.0
CREATION_DATE  = 
ORIGINATOR     = 

OBJECT_NAME    = SL-14 R/B
OBJECT_ID      = 1990-018B
CENTER_NAME    = EARTH
REF_FRAME      = TEME
TIME_SYSTEM    = UTC
MEAN_ELEMENT_THEORY = SGP/SGP4

EPOCH          = 2026-02-04T02:00:21.127968
MEAN_MOTION    = 14.82109613
ECCENTRICITY   = .00158299
INCLINATION    = 82.5187
RA_OF_ASC_NODE = 254.5083
ARG_OF_PERICENTER = 197.9382
MEAN_ANOMALY   = 162.1276

EPHEMERIS_TYPE = 0
CLASSIFICATION_TYPE = U
NORAD_CAT_ID   = 20511
ELEMENT_SET_NO = 999
REV_AT_EPOCH   = 91760
BSTAR          = .51647046E-4
MEAN_MOTION_DOT = .435E-5
MEAN_MOTION_DDOT = 0

CCSDS_OMM_VERS = 2.0
CREATION_DATE  = 
ORIGINATOR     = 

OBJECT_NAME    = HST
OBJECT_ID      = 1990-037B
CENTER_NAME    = EARTH
REF_FRAME      = TEME
TIME_SYSTEM    = UTC
MEAN_ELEMENT_THEORY = SGP/SGP4

EPOCH          = 2026-02-04T00:09:29.439936
MEAN_MOTION    = 15.28939114
ECCENTRICITY   = .00020078
INCLINATION    = 28.4666
RA_OF_ASC_NODE = 269.6866
ARG_OF_PERICENTER = 97.1098
MEAN_ANOMALY   = 262.9725

EPHEMERIS_TYPE = 0
CLASSIFICATION_TYPE = U
NORAD_CAT_ID   = 20580
ELEMENT_SET_NO = 999
REV_AT_EPOCH   = 76815
BSTAR          = .29857528E-3
MEAN_MOTION_DOT = .887E-4
MEAN_MOTION_DDOT = 0

CCSDS_OMM_VERS = 2.0
CREATION_DATE  = 
ORIGINATOR     = 

OBJECT_NAME    = SL-16 R/B
OBJECT_ID      = 1990-046B
CENTER_NAME    = EARTH
REF_FRAME      = TEME
TIME_SYSTEM    = UTC
MEAN_ELEMENT_THEORY = SGP/SGP4

EPOCH          = 2026-02-04T06:14:19.914144
MEAN_MOTION    = 14.15004939
ECCENTRICITY   = .00145028
INCLINATION    = 70.9996
RA_OF_ASC_NODE = 8.1190
ARG_OF_PERICENTER = 346.0280
MEAN_ANOMALY   = 14.0440

EPHEMERIS_TYPE = 0
CLASSIFICATION_TYPE = U
NORAD_CAT_ID   = 20625
ELEMENT_SET_NO = 999
REV_AT_EPOCH   = 84366
BSTAR          = .321359E-5
MEAN_MOTION_DOT = -.41E-6
MEAN_MOTION_DDOT = 0

CCSDS_OMM_VERS = 2.0
CREATION_DATE  = 
ORIGINATOR     = 

OBJECT_NAME    = COSMOS 2084
OBJECT_ID      = 1990-055A
CENTER_NAME    = EARTH
REF_FRAME      = TEME
TIME_SYSTEM    = UTC
MEAN_ELEMENT_THEORY = SGP/SGP4

EPOCH          = 2026-02-04T07:30:41.364864
MEAN_MOTION    = 15.05431651
ECCENTRICITY   = .00224337
INCLINATION    = 62.7896
RA_OF_ASC_NODE = 89.3963
ARG_OF_PERICENTER = 183.1294
MEAN_ANOMALY   = 176.9670

EPHEMERIS_TYPE = 0
CLASSIFICATION_TYPE = U
NORAD_CAT_ID   = 20663
ELEMENT_SET_NO = 999
REV_AT_EPOCH   = 93129
BSTAR          = .22124339E-3
MEAN_MOTION_DOT = .3005E-4
MEAN_MOTION_DDOT = 0

CCSDS_OMM_VERS = 2.0
CREATION_DATE  = 
ORIGINATOR     = 

OBJECT_NAME    = SL-6 R/B(2)
OBJECT_ID      = 1990-055D
CENTER_NAME    = EARTH
REF_FRAME      = TEME
TIME_SYSTEM    = UTC
MEAN_ELEMENT_THEORY = SGP/SGP4

EPOCH          = 2026-02-04T06:00:45.391104
MEAN_MOTION    = 15.03407942
ECCENTRICITY   = .00198113
INCLINATION    = 62.7849
RA_OF_ASC_NODE = 7.5485
ARG_OF_PERICENTER = 337.2024
MEAN_ANOMALY   = 22.8193

EPHEMERIS_TYPE = 0
CLASSIFICATION_TYPE = U
NORAD_CAT_ID   = 20666
ELEMENT_SET_NO = 999
REV_AT_EPOCH   = 93316
BSTAR          = .25998236E-3
MEAN_MOTION_DOT = .3369E-4
MEAN_MOTION_DDOT = 0

CCSDS_OMM_VERS = 2.0
CREATION_DATE  = 
ORIGINATOR     = 

OBJECT_NAME    = SL-8 R/B
OBJECT_ID      = 1990-078B
CENTER_NAME    = EARTH
REF_FRAME      = TEME
TIME_SYSTEM    = UTC
MEAN_ELEMENT_THEORY = SGP/SGP4

EPOCH          = 2026-02-04T03:58:09.635520
MEAN_MOTION    = 14.87938950
ECCENTRICITY   = .03674317
INCLINATION    = 82.9030
RA_OF_ASC_NODE = 281.4322
ARG_OF_PERICENTER = 126.3077
MEAN_ANOMALY   = 237.2671

EPHEMERIS_TYPE = 0
CLASSIFICATION_TYPE = U
NORAD_CAT_ID   = 20775
ELEMENT_SET_NO = 999
REV_AT_EPOCH   = 80431
BSTAR          = .49276736E-3
MEAN_MOTION_DOT = .1666E-3
MEAN_MOTION_DDOT = 0

CCSDS_OMM_VERS = 2.0
CREATION_DATE  = 
ORIGINATOR     = 

OBJECT_NAME    = SL-8 R/B
OBJECT_ID      = 1991-006B
CENTER_NAME    = EARTH
REF_FRAME      = TEME
TIME_SYSTEM    = UTC
MEAN_ELEMENT_THEORY = SGP/SGP4

EPOCH          = 2026-02-04T05:37:10.965216
MEAN_MOTION    = 13.77491844
ECCENTRICITY   = .00234563
INCLINATION    = 82.9427
RA_OF_ASC_NODE = 194.9200
ARG_OF_PERICENTER = 127.3511
MEAN_ANOMALY   = 46.3000

EPHEMERIS_TYPE = 0
CLASSIFICATION_TYPE = U
NORAD_CAT_ID   = 21088
ELEMENT_SET_NO = 999
REV_AT_EPOCH   = 75946
BSTAR          = -.13370107E-4
MEAN_MOTION_DOT = .2E-7
MEAN_MOTION_DDOT = 0

CCSDS_OMM_VERS = 2.0
CREATION_DATE  = 
ORIGINATOR     = 

OBJECT_NAME    = OKEAN-3
OBJECT_ID      = 1991-039A
CENTER_NAME    = EARTH
REF_FRAME      = TEME
TIME_SYSTEM    = UTC
MEAN_ELEMENT_THEORY = SGP/SGP4

EPOCH          = 2026-02-04T07:05:11.226912
MEAN_MOTION    = 15.04534613
ECCENTRICITY   = .00163253
INCLINATION    = 82.5181
RA_OF_ASC_NODE = 9.1850
ARG_OF_PERICENTER = 85.6419
MEAN_ANOMALY   = 274.6672

EPHEMERIS_TYPE = 0
CLASSIFICATION_TYPE = U
NORAD_CAT_ID   = 21397
ELEMENT_SET_NO = 999
REV_AT_EPOCH   = 86001
BSTAR          = .26846952E-3
MEAN_MOTION_DOT = .3799E-4
MEAN_MOTION_DDOT = 0

CCSDS_OMM_VERS = 2.0
CREATION_DATE  = 
ORIGINATOR     = 

OBJECT_NAME    = COSMOS 2151
OBJECT_ID      = 1991-042A
CENTER_NAME    = EARTH
REF_FRAME      = TEME
TIME_SYSTEM    = UTC
MEAN_ELEMENT_THEORY = SGP/SGP4

EPOCH          = 2026-02-04T06:19:04.360224
MEAN_MOTION    = 14.99971855
ECCENTRICITY   = .00129885
INCLINATION    = 82.4970
RA_OF_ASC_NODE = 115.9186
ARG_OF_PERICENTER = 166.0660
MEAN_ANOMALY   = 194.0925

EPHEMERIS_TYPE = 0
CLASSIFICATION_TYPE = U
NORAD_CAT_ID   = 21422
ELEMENT_SET_NO = 999
REV_AT_EPOCH   = 85818
BSTAR          = .15655727E-3
MEAN_MOTION_DOT = .1974E-4
MEAN_MOTION_DDOT = 0

